start=new Date('2021-10-22T00:00:00.000Z').valueOf();
sats=[{"RCS_SIZE":"LARGE","ECCENTRICITY":"0.00012760","PERIOD":"95.592","CENTER_NAME":"EARTH","OBJECT_NAME":"STARLINK-1957","TIME_SYSTEM":"UTC","EPHEMERIS_TYPE":"0","RA_OF_ASC_NODE":"355.1642","TLE_LINE1":"1 47558U 21009L   21294.49450098 -.00001509  00000-0 -82443-4 0  9990","REV_AT_EPOCH":"4034","APOAPSIS":"548.108","MEAN_MOTION_DOT":"-0.00001509","ARG_OF_PERICENTER":"89.7619","TLE_LINE2":"2 47558  53.0553 355.1642 0001276  89.7619 270.3516 15.06396488 40349","MEAN_MOTION":"15.06396488","DECAY_DATE":null,"ELEMENT_SET_NO":"999","PERIAPSIS":"546.341","LAUNCH_DATE":"2021-02-04","SEMIMAJOR_AXIS":"6925.359","EPOCH":"2021-10-21T11:52:04.884672","CLASSIFICATION_TYPE":"U","OBJECT_TYPE":"PAYLOAD","COUNTRY_CODE":"US","NORAD_CAT_ID":"47558","MEAN_ELEMENT_THEORY":"SGP4","REF_FRAME":"TEME","BSTAR":"-0.00008244300000","INCLINATION":"53.0553","OBJECT_ID":"2021-009L","MEAN_ANOMALY":"270.3516","SITE":"AFETR","FILE":"3176757","GP_ID":"187817456","MEAN_MOTION_DDOT":"0.0000000000000"},{"MEAN_MOTION":"15.06385418","TLE_LINE2":"2 47559  53.0553 345.3397 0001248  99.9903 260.1227 15.06385418 39880","ARG_OF_PERICENTER":"99.9903","DECAY_DATE":null,"ELEMENT_SET_NO":"999","PERIAPSIS":"546.394","LAUNCH_DATE":"2021-02-04","EPOCH":"2021-10-21T11:00:20.289888","SEMIMAJOR_AXIS":"6925.393","RA_OF_ASC_NODE":"345.3397","EPHEMERIS_TYPE":"0","TIME_SYSTEM":"UTC","TLE_LINE1":"1 47559U 21009M   21294.45856817 -.00002006  00000-0 -11589-3 0  9991","REV_AT_EPOCH":"3988","APOAPSIS":"548.123","MEAN_MOTION_DOT":"-0.00002006","PERIOD":"95.593","CENTER_NAME":"EARTH","OBJECT_NAME":"STARLINK-1958","RCS_SIZE":"LARGE","ECCENTRICITY":"0.00012480","GP_ID":"187810258","MEAN_MOTION_DDOT":"0.0000000000000","OBJECT_ID":"2021-009M","MEAN_ANOMALY":"260.1227","FILE":"3176553","SITE":"AFETR","MEAN_ELEMENT_THEORY":"SGP4","REF_FRAME":"TEME","INCLINATION":"53.0553","BSTAR":"-0.00011589000000","CLASSIFICATION_TYPE":"U","OBJECT_TYPE":"PAYLOAD","NORAD_CAT_ID":"47559","COUNTRY_CODE":"US"},{"GP_ID":"187840656","MEAN_MOTION_DDOT":"0.0000000000000","OBJECT_ID":"2021-009N","FILE":"3176920","SITE":"AFETR","MEAN_ANOMALY":"274.8904","REF_FRAME":"TEME","MEAN_ELEMENT_THEORY":"SGP4","INCLINATION":"53.0557","BSTAR":"-0.00001583400000","CLASSIFICATION_TYPE":"U","NORAD_CAT_ID":"47560","COUNTRY_CODE":"US","OBJECT_TYPE":"PAYLOAD","DECAY_DATE":null,"MEAN_MOTION":"15.06396739","TLE_LINE2":"2 47560  53.0557 344.7832 0001313  85.2235 274.8904 15.06396739 39907","ARG_OF_PERICENTER":"85.2235","EPOCH":"2021-10-21T14:00:46.693728","LAUNCH_DATE":"2021-02-04","SEMIMAJOR_AXIS":"6925.359","PERIAPSIS":"546.314","ELEMENT_SET_NO":"999","RA_OF_ASC_NODE":"344.7832","TIME_SYSTEM":"UTC","EPHEMERIS_TYPE":"0","APOAPSIS":"548.133","MEAN_MOTION_DOT":"-0.00000517","TLE_LINE1":"1 47560U 21009N   21294.58387377 -.00000517  00000-0 -15834-4 0  9990","REV_AT_EPOCH":"3990","CENTER_NAME":"EARTH","PERIOD":"95.592","OBJECT_NAME":"STARLINK-1959","RCS_SIZE":"LARGE","ECCENTRICITY":"0.00013130"},{"CLASSIFICATION_TYPE":"U","NORAD_CAT_ID":"47561","COUNTRY_CODE":"US","OBJECT_TYPE":"PAYLOAD","REF_FRAME":"TEME","MEAN_ELEMENT_THEORY":"SGP4","INCLINATION":"53.0579","BSTAR":"-0.00013449000000","OBJECT_ID":"2021-009P","FILE":"3176920","SITE":"AFETR","MEAN_ANOMALY":"7.9427","GP_ID":"187840901","MEAN_MOTION_DDOT":"0.0000000000000","RCS_SIZE":"LARGE","ECCENTRICITY":"0.00044710","CENTER_NAME":"EARTH","PERIOD":"95.593","OBJECT_NAME":"STARLINK-1960","RA_OF_ASC_NODE":"4.5337","EPHEMERIS_TYPE":"0","TIME_SYSTEM":"UTC","APOAPSIS":"550.359","MEAN_MOTION_DOT":"-0.00002285","TLE_LINE1":"1 47561U 21009P   21294.63732753 -.00002285  00000-0 -13449-3 0  9992","REV_AT_EPOCH":"3963","DECAY_DATE":null,"TLE_LINE2":"2 47561  53.0579   4.5337 0004471 352.1491   7.9427 15.06383851 39637","MEAN_MOTION":"15.06383851","ARG_OF_PERICENTER":"352.1491","LAUNCH_DATE":"2021-02-04","SEMIMAJOR_AXIS":"6925.398","EPOCH":"2021-10-21T15:17:45.098592","PERIAPSIS":"544.167","ELEMENT_SET_NO":"999"},{"RCS_SIZE":"LARGE","ECCENTRICITY":"0.00012040","PERIOD":"95.593","CENTER_NAME":"EARTH","OBJECT_NAME":"STARLINK-1961","EPHEMERIS_TYPE":"0","TIME_SYSTEM":"UTC","RA_OF_ASC_NODE":"4.7653","REV_AT_EPOCH":"3962","TLE_LINE1":"1 47562U 21009Q   21294.58572136 -.00001254  00000-0 -65321-4 0  9996","APOAPSIS":"548.075","MEAN_MOTION_DOT":"-0.00001254","ARG_OF_PERICENTER":"94.3396","TLE_LINE2":"2 47562  53.0572   4.7653 0001204  94.3396 265.7731 15.06391068 39624","MEAN_MOTION":"15.06391068","DECAY_DATE":null,"ELEMENT_SET_NO":"999","PERIAPSIS":"546.407","EPOCH":"2021-10-21T14:03:26.325504","LAUNCH_DATE":"2021-02-04","SEMIMAJOR_AXIS":"6925.376","CLASSIFICATION_TYPE":"U","OBJECT_TYPE":"PAYLOAD","COUNTRY_CODE":"US","NORAD_CAT_ID":"47562","MEAN_ELEMENT_THEORY":"SGP4","REF_FRAME":"TEME","BSTAR":"-0.00006532100000","INCLINATION":"53.0572","OBJECT_ID":"2021-009Q","MEAN_ANOMALY":"265.7731","SITE":"AFETR","FILE":"3176920","GP_ID":"187840154","MEAN_MOTION_DDOT":"0.0000000000000"},{"MEAN_ELEMENT_THEORY":"SGP4","REF_FRAME":"TEME","INCLINATION":"53.0579","BSTAR":"-0.00012844000000","CLASSIFICATION_TYPE":"U","OBJECT_TYPE":"PAYLOAD","NORAD_CAT_ID":"47563","COUNTRY_CODE":"US","GP_ID":"187810758","MEAN_MOTION_DDOT":"0.0000000000000","OBJECT_ID":"2021-009R","MEAN_ANOMALY":"262.0185","FILE":"3176553","SITE":"AFETR","PERIOD":"95.592","CENTER_NAME":"EARTH","OBJECT_NAME":"STARLINK-1962","RCS_SIZE":"LARGE","ECCENTRICITY":"0.00012580","TLE_LINE2":"2 47563  53.0579   5.2599 0001258  98.0946 262.0185 15.06403107 39607","ARG_OF_PERICENTER":"98.0946","MEAN_MOTION":"15.06403107","DECAY_DATE":null,"PERIAPSIS":"546.333","ELEMENT_SET_NO":"999","LAUNCH_DATE":"2021-02-04","EPOCH":"2021-10-21T11:24:12.700800","SEMIMAJOR_AXIS":"6925.339","RA_OF_ASC_NODE":"5.2599","TIME_SYSTEM":"UTC","EPHEMERIS_TYPE":"0","REV_AT_EPOCH":"3960","TLE_LINE1":"1 47563U 21009R   21294.47514700 -.00002194  00000-0 -12844-3 0  9993","APOAPSIS":"548.075","MEAN_MOTION_DOT":"-0.00002194"},{"PERIAPSIS":"546.368","ELEMENT_SET_NO":"999","LAUNCH_DATE":"2021-02-04","EPOCH":"2021-10-21T13:01:04.106496","SEMIMAJOR_AXIS":"6925.340","ARG_OF_PERICENTER":"84.2758","TLE_LINE2":"2 47564  53.0571 354.9567 0001209  84.2758 275.8369 15.06402702 39755","MEAN_MOTION":"15.06402702","DECAY_DATE":null,"REV_AT_EPOCH":"3975","TLE_LINE1":"1 47564U 21009S   21294.54240864 -.00001623  00000-0 -90056-4 0  9997","APOAPSIS":"548.043","MEAN_MOTION_DOT":"-0.00001623","EPHEMERIS_TYPE":"0","TIME_SYSTEM":"UTC","RA_OF_ASC_NODE":"354.9567","OBJECT_NAME":"STARLINK-1963","PERIOD":"95.592","CENTER_NAME":"EARTH","ECCENTRICITY":"0.00012090","RCS_SIZE":"LARGE","MEAN_MOTION_DDOT":"0.0000000000000","GP_ID":"187841156","MEAN_ANOMALY":"275.8369","SITE":"AFETR","FILE":"3176920","OBJECT_ID":"2021-009S","BSTAR":"-0.00009005600000","INCLINATION":"53.0571","MEAN_ELEMENT_THEORY":"SGP4","REF_FRAME":"TEME","OBJECT_TYPE":"PAYLOAD","COUNTRY_CODE":"US","NORAD_CAT_ID":"47564","CLASSIFICATION_TYPE":"U"},{"OBJECT_NAME":"STARLINK-1964","PERIOD":"95.592","CENTER_NAME":"EARTH","ECCENTRICITY":"0.00012530","RCS_SIZE":"LARGE","PERIAPSIS":"546.340","ELEMENT_SET_NO":"999","LAUNCH_DATE":"2021-02-04","EPOCH":"2021-10-21T16:06:50.625792","SEMIMAJOR_AXIS":"6925.343","MEAN_MOTION":"15.06401834","TLE_LINE2":"2 47565  53.0569 354.3759 0001253  86.4980 273.6152 15.06401834 39773","ARG_OF_PERICENTER":"86.4980","DECAY_DATE":null,"REV_AT_EPOCH":"3977","TLE_LINE1":"1 47565U 21009T   21294.67141928 -.00001236  00000-0 -64126-4 0  9992","MEAN_MOTION_DOT":"-0.00001236","APOAPSIS":"548.076","RA_OF_ASC_NODE":"354.3759","TIME_SYSTEM":"UTC","EPHEMERIS_TYPE":"0","INCLINATION":"53.0569","BSTAR":"-0.00006412600000","MEAN_ELEMENT_THEORY":"SGP4","REF_FRAME":"TEME","OBJECT_TYPE":"PAYLOAD","NORAD_CAT_ID":"47565","COUNTRY_CODE":"US","CLASSIFICATION_TYPE":"U","MEAN_MOTION_DDOT":"0.0000000000000","GP_ID":"187841401","MEAN_ANOMALY":"273.6152","FILE":"3176920","SITE":"AFETR","OBJECT_ID":"2021-009T"},{"BSTAR":"-0.00008534100000","INCLINATION":"53.0564","MEAN_ELEMENT_THEORY":"SGP4","REF_FRAME":"TEME","OBJECT_TYPE":"PAYLOAD","COUNTRY_CODE":"US","NORAD_CAT_ID":"47566","CLASSIFICATION_TYPE":"U","MEAN_MOTION_DDOT":"0.0000000000000","GP_ID":"187811509","MEAN_ANOMALY":"277.5832","SITE":"AFETR","FILE":"3176553","OBJECT_ID":"2021-009U","OBJECT_NAME":"STARLINK-1965","PERIOD":"95.592","CENTER_NAME":"EARTH","ECCENTRICITY":"0.00011210","RCS_SIZE":"LARGE","PERIAPSIS":"546.432","ELEMENT_SET_NO":"999","LAUNCH_DATE":"2021-02-04","SEMIMAJOR_AXIS":"6925.344","EPOCH":"2021-10-21T11:10:55.925184","TLE_LINE2":"2 47566  53.0564 345.2950 0001121  82.5284 277.5832 15.06401625 39887","ARG_OF_PERICENTER":"82.5284","MEAN_MOTION":"15.06401625","DECAY_DATE":null,"REV_AT_EPOCH":"3988","TLE_LINE1":"1 47566U 21009U   21294.46592506 -.00001552  00000-0 -85341-4 0  9995","APOAPSIS":"547.985","MEAN_MOTION_DOT":"-0.00001552","TIME_SYSTEM":"UTC","EPHEMERIS_TYPE":"0","RA_OF_ASC_NODE":"345.2950"},{"MEAN_MOTION":"15.06387037","TLE_LINE2":"2 47567  53.0571  25.1371 0001216  93.2580 266.8548 15.06387037 39324","ARG_OF_PERICENTER":"93.2580","DECAY_DATE":null,"ELEMENT_SET_NO":"999","PERIAPSIS":"546.411","EPOCH":"2021-10-21T12:04:01.394688","LAUNCH_DATE":"2021-02-04","SEMIMAJOR_AXIS":"6925.388","RA_OF_ASC_NODE":"25.1371","TIME_SYSTEM":"UTC","EPHEMERIS_TYPE":"0","TLE_LINE1":"1 47567U 21009V   21294.50279392 -.00001844  00000-0 -10496-3 0  9998","REV_AT_EPOCH":"3932","APOAPSIS":"548.095","MEAN_MOTION_DOT":"-0.00001844","PERIOD":"95.593","CENTER_NAME":"EARTH","OBJECT_NAME":"STARLINK-1966","RCS_SIZE":"LARGE","ECCENTRICITY":"0.00012160","GP_ID":"187810259","MEAN_MOTION_DDOT":"0.0000000000000","OBJECT_ID":"2021-009V","MEAN_ANOMALY":"266.8548","FILE":"3176553","SITE":"AFETR","MEAN_ELEMENT_THEORY":"SGP4","REF_FRAME":"TEME","INCLINATION":"53.0571","BSTAR":"-0.00010496000000","CLASSIFICATION_TYPE":"U","OBJECT_TYPE":"PAYLOAD","NORAD_CAT_ID":"47567","COUNTRY_CODE":"US"}];
